{
  "type": "FeatureCollection",
  "features": [
    {
      "type": "Feature",
      "properties": {
        "norad_id": 34924,
        "name": "COSMOS 2251 DEB",
        "group": "cosmos-2251-debris",
        "lat": 69.29977850198374,
        "lon": 125.08309433179699,
        "alt_km": 680.3626120741383,
        "timestamp": "2025-12-19T20:43:00.481396+00:00",
        "meta_object_name": "COSMOS 2251 DEB",
        "meta_object_id": "1993-036ADV",
        "meta_epoch": "2025-12-19T05:40:06.816000",
        "meta_mean_motion": 14.60086565,
        "meta_eccentricity": 0.005382,
        "meta_inclination": 74.0412,
        "meta_ra_of_asc_node": 77.0537,
        "meta_arg_of_pericenter": 160.1168,
        "meta_mean_anomaly": 222.7624,
        "meta_ephemeris_type": 0,
        "meta_classification_type": "U",
        "meta_norad_cat_id": 34924,
        "meta_element_set_no": 999,
        "meta_rev_at_epoch": 87818,
        "meta_bstar": 0.00058832745,
        "meta_mean_motion_dot": 2.857e-05,
        "meta_mean_motion_ddot": 0,
        "tle_line1": "1 34924U 93036ADV 25353.23619000  .00002857  00000+0  58833-3 0  9993",
        "tle_line2": "2 34924  74.0412  77.0537 0053820 160.1168 222.7624 14.60086565878180"
      },
      "geometry": {
        "type": "Point",
        "coordinates": [
          125.08309433179699,
          69.29977850198374
        ]
      }
    },
    {
      "type": "Feature",
      "properties": {
        "norad_id": 34944,
        "name": "COSMOS 2251 DEB",
        "group": "cosmos-2251-debris",
        "lat": 73.68963874614656,
        "lon": -55.42631175429145,
        "alt_km": 691.1597605747638,
        "timestamp": "2025-12-19T20:43:00.481407+00:00",
        "meta_object_name": "COSMOS 2251 DEB",
        "meta_object_id": "1993-036ADX",
        "meta_epoch": "2025-12-17T02:06:11.847168",
        "meta_mean_motion": 14.14195665,
        "meta_eccentricity": 0.02198727,
        "meta_inclination": 73.7495,
        "meta_ra_of_asc_node": 224.195,
        "meta_arg_of_pericenter": 70.8954,
        "meta_mean_anomaly": 291.5851,
        "meta_ephemeris_type": 0,
        "meta_classification_type": "U",
        "meta_norad_cat_id": 34944,
        "meta_element_set_no": 999,
        "meta_rev_at_epoch": 64144,
        "meta_bstar": 0.00030334686,
        "meta_mean_motion_dot": 7.03e-06,
        "meta_mean_motion_ddot": 0,
        "tle_line1": "1 34944U 93036ADX 25351.08763712  .00000703  00000+0  30335-3 0  9991",
        "tle_line2": "2 34944  73.7495 224.1950 0219872  70.8954 291.5851 14.14195665641448"
      },
      "geometry": {
        "type": "Point",
        "coordinates": [
          -55.42631175429145,
          73.68963874614656
        ]
      }
    },
    {
      "type": "Feature",
      "properties": {
        "norad_id": 34946,
        "name": "COSMOS 2251 DEB",
        "group": "cosmos-2251-debris",
        "lat": -27.493629284969046,
        "lon": -40.10966537232392,
        "alt_km": 714.9680206600115,
        "timestamp": "2025-12-19T20:43:00.481418+00:00",
        "meta_object_name": "COSMOS 2251 DEB",
        "meta_object_id": "1993-036ADZ",
        "meta_epoch": "2025-12-18T15:17:17.396160",
        "meta_mean_motion": 14.62025855,
        "meta_eccentricity": 0.00485761,
        "meta_inclination": 74.0231,
        "meta_ra_of_asc_node": 330.8135,
        "meta_arg_of_pericenter": 106.1456,
        "meta_mean_anomaly": 254.5065,
        "meta_ephemeris_type": 0,
        "meta_classification_type": "U",
        "meta_norad_cat_id": 34946,
        "meta_element_set_no": 999,
        "meta_rev_at_epoch": 88295,
        "meta_bstar": 0.00041379352,
        "meta_mean_motion_dot": 2.081e-05,
        "meta_mean_motion_ddot": 0,
        "tle_line1": "1 34946U 93036ADZ 25352.63700690  .00002081  00000+0  41379-3 0  9992",
        "tle_line2": "2 34946  74.0231 330.8135 0048576 106.1456 254.5065 14.62025855882958"
      },
      "geometry": {
        "type": "Point",
        "coordinates": [
          -40.10966537232392,
          -27.493629284969046
        ]
      }
    },
    {
      "type": "Feature",
      "properties": {
        "norad_id": 34949,
        "name": "COSMOS 2251 DEB",
        "group": "cosmos-2251-debris",
        "lat": 3.306344633475098,
        "lon": -85.20477599412503,
        "alt_km": 624.4000875438369,
        "timestamp": "2025-12-19T20:43:00.481428+00:00",
        "meta_object_name": "COSMOS 2251 DEB",
        "meta_object_id": "1993-036AEC",
        "meta_epoch": "2025-12-16T00:41:42.487008",
        "meta_mean_motion": 14.74023339,
        "meta_eccentricity": 0.00802648,
        "meta_inclination": 74.0185,
        "meta_ra_of_asc_node": 103.231,
        "meta_arg_of_pericenter": 247.8557,
        "meta_mean_anomaly": 111.4083,
        "meta_ephemeris_type": 0,
        "meta_classification_type": "U",
        "meta_norad_cat_id": 34949,
        "meta_element_set_no": 999,
        "meta_rev_at_epoch": 88410,
        "meta_bstar": 0.00040106171,
        "meta_mean_motion_dot": 2.742e-05,
        "meta_mean_motion_ddot": 0,
        "tle_line1": "1 34949U 93036AEC 25350.02896397  .00002742  00000+0  40106-3 0  9997",
        "tle_line2": "2 34949  74.0185 103.2310 0080264 247.8557 111.4083 14.74023339884109"
      },
      "geometry": {
        "type": "Point",
        "coordinates": [
          -85.20477599412503,
          3.306344633475098
        ]
      }
    },
    {
      "type": "Feature",
      "properties": {
        "norad_id": 34953,
        "name": "COSMOS 2251 DEB",
        "group": "cosmos-2251-debris",
        "lat": 22.648426349554573,
        "lon": 20.582149030423924,
        "alt_km": 624.8485458846162,
        "timestamp": "2025-12-19T20:43:00.481439+00:00",
        "meta_object_name": "COSMOS 2251 DEB",
        "meta_object_id": "1993-036AEG",
        "meta_epoch": "2025-12-18T18:58:35.355936",
        "meta_mean_motion": 14.69007223,
        "meta_eccentricity": 0.00583881,
        "meta_inclination": 74.0928,
        "meta_ra_of_asc_node": 15.8163,
        "meta_arg_of_pericenter": 6.0992,
        "meta_mean_anomaly": 107.8231,
        "meta_ephemeris_type": 0,
        "meta_classification_type": "U",
        "meta_norad_cat_id": 34953,
        "meta_element_set_no": 999,
        "meta_rev_at_epoch": 88217,
        "meta_bstar": 0.00055031984,
        "meta_mean_motion_dot": 3.28e-05,
        "meta_mean_motion_ddot": 0,
        "tle_line1": "1 34953U 93036AEG 25352.79068699  .00003280  00000+0  55032-3 0  9996",
        "tle_line2": "2 34953  74.0928  15.8163 0058388   6.0992 107.8231 14.69007223882170"
      },
      "geometry": {
        "type": "Point",
        "coordinates": [
          20.582149030423924,
          22.648426349554573
        ]
      }
    },
    {
      "type": "Feature",
      "properties": {
        "norad_id": 34955,
        "name": "COSMOS 2251 DEB",
        "group": "cosmos-2251-debris",
        "lat": -61.64661698575898,
        "lon": 84.04686474330897,
        "alt_km": 539.4926979601432,
        "timestamp": "2025-12-19T20:43:00.481449+00:00",
        "meta_object_name": "COSMOS 2251 DEB",
        "meta_object_id": "1993-036AEJ",
        "meta_epoch": "2025-12-17T22:49:00.130944",
        "meta_mean_motion": 15.00628919,
        "meta_eccentricity": 0.00778127,
        "meta_inclination": 74.0384,
        "meta_ra_of_asc_node": 235.9048,
        "meta_arg_of_pericenter": 304.378,
        "meta_mean_anomaly": 55.0064,
        "meta_ephemeris_type": 0,
        "meta_classification_type": "U",
        "meta_norad_cat_id": 34955,
        "meta_element_set_no": 999,
        "meta_rev_at_epoch": 90112,
        "meta_bstar": 0.00052844899,
        "meta_mean_motion_dot": 7.088e-05,
        "meta_mean_motion_ddot": 0,
        "tle_line1": "1 34955U 93036AEJ 25351.95069596  .00007088  00000+0  52845-3 0  9991",
        "tle_line2": "2 34955  74.0384 235.9048 0077812 304.3780  55.0064 15.00628919901129"
      },
      "geometry": {
        "type": "Point",
        "coordinates": [
          84.04686474330897,
          -61.64661698575898
        ]
      }
    },
    {
      "type": "Feature",
      "properties": {
        "norad_id": 34962,
        "name": "COSMOS 2251 DEB",
        "group": "cosmos-2251-debris",
        "lat": 73.93550726339934,
        "lon": -83.95256353968976,
        "alt_km": 742.1039855007011,
        "timestamp": "2025-12-19T20:43:00.481460+00:00",
        "meta_object_name": "COSMOS 2251 DEB",
        "meta_object_id": "1993-036AER",
        "meta_epoch": "2025-12-18T22:43:00.041664",
        "meta_mean_motion": 14.4653439,
        "meta_eccentricity": 0.00188463,
        "meta_inclination": 74.0286,
        "meta_ra_of_asc_node": 181.7701,
        "meta_arg_of_pericenter": 294.3203,
        "meta_mean_anomaly": 65.5987,
        "meta_ephemeris_type": 0,
        "meta_classification_type": "U",
        "meta_norad_cat_id": 34962,
        "meta_element_set_no": 999,
        "meta_rev_at_epoch": 87668,
        "meta_bstar": 0.00031666528,
        "meta_mean_motion_dot": 1.116e-05,
        "meta_mean_motion_ddot": 0,
        "tle_line1": "1 34962U 93036AER 25352.94652826  .00001116  00000+0  31667-3 0  9998",
        "tle_line2": "2 34962  74.0286 181.7701 0018846 294.3203  65.5987 14.46534390876682"
      },
      "geometry": {
        "type": "Point",
        "coordinates": [
          -83.95256353968976,
          73.93550726339934
        ]
      }
    }
  ]
}